YAM-7                   
1 60504U 24149AN  26068.71799904  .00009009  00000+0  30984-3 0  9997
2 60504  97.3828 149.4631 0001973 296.5121  63.5918 15.30304554 86835
STARLINK-32334          
1 62023U 24213R   26068.52454244  .00026147  00000+0  89148-3 0  9999
2 62023  53.1610 168.6006 0001561 157.5927 202.5143 15.30212185 73136
